{
  "64734": {
    "noradId": "64734",
    "tle": [
      "1 64734C 25144L   25298.07479167  .00000483  00000+0  16264-4 0  2986",
      "2 64734  53.1595  90.7997 0001272  86.9487 173.6709 15.30187983    18"
    ]
  },
  "64735": {
    "noradId": "64735",
    "tle": [
      "1 64735C 25144M   25298.06854167 -.00007900  00000+0 -26626-3 0  2988",
      "2 64735  53.1579  91.1520 0001505  89.8990 333.3987 15.30198335    14"
    ]
  },
  "64736": {
    "noradId": "64736",
    "tle": [
      "1 64736C 25144N   25298.07548611 -.00005374  00000+0 -18116-3 0  2982",
      "2 64736  53.1590  90.9293 0001169  85.5239 109.1223 15.30193415    13"
    ]
  },
  "64737": {
    "noradId": "64737",
    "tle": [
      "1 64737C 25144P   25298.07687500 -.00002127  00000+0 -71690-4 0  2984",
      "2 64737  53.1580  91.2560 0001194  85.8643 307.7601 15.30190126    16"
    ]
  },
  "64738": {
    "noradId": "64738",
    "tle": [
      "1 64738C 25144Q   25298.07409722  .00011271  00000+0  37985-3 0  2989",
      "2 64738  53.1593  90.6645 0001258  81.2731 245.2981 15.30183661    10"
    ]
  },
  "64739": {
    "noradId": "64739",
    "tle": [
      "1 64739C 25144R   25298.07895833 -.00004072  00000+0 -13715-3 0  2980",
      "2 64739  53.1576  91.0627 0000834 107.2878  30.7917 15.30219621    19"
    ]
  },
  "64740": {
    "noradId": "64740",
    "tle": [
      "1 64740C 25144S   25298.07618056  .00007680  00000+0  25885-3 0  2989",
      "2 64740  53.1602  88.4742 0001374  91.9305 272.3168 15.30181571    17"
    ]
  },
  "64741": {
    "noradId": "64741",
    "tle": [
      "1 64741C 25144T   25298.05256944  .00023696  00000+0  79889-3 0  2980",
      "2 64741  53.1584  91.0824 0001284  84.3498 320.7467 15.30157903    19"
    ]
  },
  "64742": {
    "noradId": "64742",
    "tle": [
      "1 64742C 25144U   25298.07826389  .00013078  00000+0  44085-3 0  2982",
      "2 64742  53.1572  91.1345 0001022  87.7308  11.7236 15.30172224    17"
    ]
  },
  "64743": {
    "noradId": "64743",
    "tle": [
      "1 64743C 25144V   25298.07548611 -.00063943  00000+0 -21559-2 0  2980",
      "2 64743  53.1585  90.9625 0001356  86.8488  90.4049 15.30243771    11"
    ]
  },
  "64744": {
    "noradId": "64744",
    "tle": [
      "1 64744C 25144W   25298.07479167 -.00001782  00000+0 -60050-4 0  2984",
      "2 64744  53.1594  90.7139 0001252  84.8545 216.4776 15.30192475    18"
    ]
  },
  "64745": {
    "noradId": "64745",
    "tle": [
      "1 64745C 25144X   25298.07548611 -.00009063  00000+0 -30546-3 0  2982",
      "2 64745  53.1579  91.2384 0001092  88.2958 309.2973 15.30200338    16"
    ]
  },
  "64746": {
    "noradId": "64746",
    "tle": [
      "1 64746C 25144Y   25298.07756944 -.00023370  00000+0 -58315-3 0  2984",
      "2 64746  53.1586  85.2499 0001159  77.1652 127.8095 15.39638703    16"
    ]
  },
  "64747": {
    "noradId": "64747",
    "tle": [
      "1 64747C 25144Z   25298.07687500 -.00013925  00000+0 -34747-3 0  2984",
      "2 64747  53.1597  81.0133 0001155  85.5634  70.9834 15.39630088    14"
    ]
  },
  "64748": {
    "noradId": "64748",
    "tle": [
      "1 64748C 25144AA  25298.08104167 -.00049253  00000+0 -16605-2 0  2984",
      "2 64748  53.1576  91.0026 0001213  85.7969  87.1636 15.30231047    15"
    ]
  },
  "64749": {
    "noradId": "64749",
    "tle": [
      "1 64749C 25144AB  25298.07895833 -.00012109  00000+0 -40798-3 0  2982",
      "2 64749  53.1576  91.0227 0001156  86.0072  69.6037 15.30215794    15"
    ]
  },
  "64750": {
    "noradId": "64750",
    "tle": [
      "1 64750C 25144AC  25298.07756944  .00010805  00000+0  36415-3 0  2983",
      "2 64750  53.1593  90.8515 0001246  83.3901 157.6297 15.30182232    10"
    ]
  },
  "64755": {
    "noradId": "64755",
    "tle": [
      "1 64755C 25147A   25298.07479167  .00013245  00000+0  44641-3 0  2981",
      "2 64755  53.1570 152.6475 0001201  89.1558 101.0200 15.30178248    14"
    ]
  },
  "64756": {
    "noradId": "64756",
    "tle": [
      "1 64756C 25147B   25298.07965278  .00018188  00000+0  61306-3 0  2983",
      "2 64756  53.1585 152.8586 0001216  81.3730  13.4565 15.30171107    15"
    ]
  },
  "64757": {
    "noradId": "64757",
    "tle": [
      "1 64757C 25147C   25298.08034722  .00023850  00000+0  80392-3 0  2984",
      "2 64757  53.1574 152.9707 0001387  84.0726 316.4225 15.30163686    16"
    ]
  },
  "64758": {
    "noradId": "64758",
    "tle": [
      "1 64758C 25147D   25298.07965278 -.00069953  00000+0 -23570-2 0  2983",
      "2 64758  53.1568 152.6091 0001454  88.8315 133.9794 15.30271037    17"
    ]
  },
  "64759": {
    "noradId": "64759",
    "tle": [
      "1 64759C 25147E   25298.07895833  .00009899  00000+0  33366-3 0  2989",
      "2 64759  53.1562 152.4724 0001230  86.7133 202.0561 15.30179377    14"
    ]
  },
  "64760": {
    "noradId": "64760",
    "tle": [
      "1 64760C 25147F   25298.07479167  .00004110  00000+0  13852-3 0  2988",
      "2 64760  53.1571 152.6804 0001231  88.1446  84.5798 15.30187422    16"
    ]
  },
  "64761": {
    "noradId": "64761",
    "tle": [
      "1 64761C 25147G   25298.07409722 -.00001723  00000+0 -58060-4 0  2989",
      "2 64761  53.1559 152.5115 0001123 105.9677 150.1563 15.30198865    14"
    ]
  },
  "64762": {
    "noradId": "64762",
    "tle": [
      "1 64762C 25147H   25298.07895833 -.00087157  00000+0 -29345-2 0  2989",
      "2 64762  53.1575 152.7164 0000849  81.7910  84.7351 15.30312137    11"
    ]
  },
  "64763": {
    "noradId": "64763",
    "tle": [
      "1 64763C 25147J   25298.08034722  .00004767  00000+0  16065-3 0  2983",
      "2 64763  53.1582 152.7849 0001278  89.6154  43.9434 15.30185273    12"
    ]
  },
  "64764": {
    "noradId": "64764",
    "tle": [
      "1 64764C 25147K   25298.08104167  .00006681  00000+0  22518-3 0  2982",
      "2 64764  53.1573 152.6701 0001298  90.5829 104.9609 15.30184433    10"
    ]
  },
  "64765": {
    "noradId": "64765",
    "tle": [
      "1 64765C 25147L   25298.07479167  .00003588  00000+0  12094-3 0  2988",
      "2 64765  53.1561 152.5610 0001273  93.0437 137.8513 15.30188436    18"
    ]
  },
  "64766": {
    "noradId": "64766",
    "tle": [
      "1 64766C 25147M   25298.07895833  .00004214  00000+0  14203-3 0  2982",
      "2 64766  53.1574 152.9978 0001131  90.8144 290.3953 15.30184341    11"
    ]
  },
  "64767": {
    "noradId": "64767",
    "tle": [
      "1 64767C 25147N   25298.07548611  .00010659  00000+0  35925-3 0  2986",
      "2 64767  53.1562 152.5449 0001181  90.0279 150.5160 15.30179520    14"
    ]
  },
  "64768": {
    "noradId": "64768",
    "tle": [
      "1 64768C 25147P   25298.07965278  .00006307  00000+0  15734-3 0  2980",
      "2 64768  53.1586 148.1691 0001180  89.6664 223.2581 15.39615098    11"
    ]
  },
  "64769": {
    "noradId": "64769",
    "tle": [
      "1 64769C 25147Q   25298.08034722  .00004318  00000+0  14553-3 0  2981",
      "2 64769  53.1563 152.5492 0001233  91.5641 164.1181 15.30191839    13"
    ]
  },
  "64770": {
    "noradId": "64770",
    "tle": [
      "1 64770C 25147R   25298.07965278  .00091069  00000+0  30705-2 0  2986",
      "2 64770  53.1566 152.5870 0001262  88.6020 145.7587 15.30088148    11"
    ]
  },
  "64771": {
    "noradId": "64771",
    "tle": [
      "1 64771C 25147S   25298.07895833  .00016696  00000+0  56280-3 0  2986",
      "2 64771  53.1565 152.3713 0001169  84.2326 256.8883 15.30170594    12"
    ]
  },
  "64772": {
    "noradId": "64772",
    "tle": [
      "1 64772C 25147T   25298.07479167  .00015112  00000+0  50935-3 0  2988",
      "2 64772  53.1566 152.3782 0001198  96.0128 227.9580 15.30174130    16"
    ]
  },
  "64773": {
    "noradId": "64773",
    "tle": [
      "1 64773C 25147U   25298.06784722 -.00064475  00000+0 -21721-2 0  2982",
      "2 64773  53.1560 152.4690 0001187  90.1673 166.4115 15.30270017    10"
    ]
  },
  "64774": {
    "noradId": "64774",
    "tle": [
      "1 64774C 25147V   25298.07895833  .00006402  00000+0  21554-3 0  2989",
      "2 64774  53.1578 152.9263 0001468 105.3158 310.6579 15.30220135    13"
    ]
  },
  "64775": {
    "noradId": "64775",
    "tle": [
      "1 64775C 25147W   25298.08034722 -.00002491  00000+0 -83958-4 0  2986",
      "2 64775  53.1584 152.8167 0001136  87.4002  28.7102 15.30191103    14"
    ]
  },
  "64776": {
    "noradId": "64776",
    "tle": [
      "1 64776C 25147X   25298.07687500  .00006180  00000+0  20829-3 0  2988",
      "2 64776  53.1579 152.7648 0001280  86.5428  45.3244 15.30184473    18"
    ]
  },
  "64777": {
    "noradId": "64777",
    "tle": [
      "1 64777C 25147Y   25298.08034722  .00006128  00000+0  20654-3 0  2980",
      "2 64777  53.1570 152.6363 0001222  92.9875 116.1810 15.30186573    15"
    ]
  },
  "64778": {
    "noradId": "64778",
    "tle": [
      "1 64778C 25147Z   25298.07548611 -.00007874  00000+0 -19648-3 0  2989",
      "2 64778  53.1583 135.3152 0001117  93.6364  82.6909 15.39625177    11"
    ]
  },
  "64779": {
    "noradId": "64779",
    "tle": [
      "1 64779C 25147AA  25298.07756944  .00016410  00000+0  55311-3 0  2981",
      "2 64779  53.1561 152.5102 0001232  86.9557 176.7104 15.30173207    16"
    ]
  },
  "64780": {
    "noradId": "64780",
    "tle": [
      "1 64780C 25147AB  25298.07756944  .00006494  00000+0  21889-3 0  2987",
      "2 64780  53.1564 152.4392 0001207  92.8005 205.7611 15.30183639    13"
    ]
  },
  "64781": {
    "noradId": "64781",
    "tle": [
      "1 64781C 25147AC  25298.08104167  .00017991  00000+0  60640-3 0  2985",
      "2 64781  53.1565 152.4340 0001121  84.3236 227.5665 15.30171063    14"
    ]
  },
  "64782": {
    "noradId": "64782",
    "tle": [
      "1 64782C 25147AD  25298.07409722  .00009499  00000+0  32040-3 0  2987",
      "2 64782  53.1561 152.5361 0001195  84.6126 154.1907 15.30157930    18"
    ]
  }
}